0 COSMOS 2251 DEB
1 36067U 93036AYE 13281.29151109  .00003446  00000-0  10857-2 0  2955
2 36067 074.0307 140.2786 0022427 212.7783 147.1895 14.40583405227077
0 COSMOS 2251 DEB
1 36067U 93036AYE 13282.95817323  .00003337  00000-0  10516-2 0  2968
2 36067 074.0306 137.1965 0022373 209.1129 150.8614 14.40593530227311
0 COSMOS 2251 DEB
1 36067U 93036AYE 13287.19421132  .00004023  00000-0  12656-2 0  2980
2 36067 074.0294 129.3642 0020311 201.8631 158.2068 14.40631107227924
0 COSMOS 2251 DEB
1 36067U 93036AYE 13289.20801476  .00004530  00000-0  14231-2 0  2992
2 36067 074.0300 125.6311 0020929 196.9649 163.1490 14.40653637228211
0 COSMOS 2251 DEB
1 36067U 93036AYE 13291.22177549  .00004896  00000-0  15364-2 0  3000
2 36067 074.0280 121.9015 0021687 192.3530 167.7330 14.40676164228504
0 COSMOS 2251 DEB
1 36067U 93036AYE 13292.19392417  .00005330  00000-0  16712-2 0  3013
2 36067 074.0291 120.1017 0021277 190.0800 170.0000 14.40690222228646
0 COSMOS 2251 DEB
1 36067U 93036AYE 13293.16606902  .00005535  00000-0  17349-2 0  3023
2 36067 074.0291 118.3026 0020782 189.1246 170.9601 14.40702720228786
